NOAA 1 [-]              
1 04793U 70106A   22208.78264545 -.00000026  00000+0  11399-3 0  9996
2 04793 101.5545 271.5722 0031233 243.2579 230.6839 12.54006429362641
NOAA 2 (ITOS-D) [-]     
1 06235U 72082A   22208.92754870 -.00000034  00000+0  79354-4 0  9990
2 06235 101.9544 191.4160 0004211   3.9755  11.3122 12.53149652277049
NOAA 3 [-]              
1 06920U 73086A   22208.87721719 -.00000049  00000+0 -21934-4 0  9994
2 06920 102.2095 190.5339 0006081 214.4117 217.3141 12.40347396205806
NOAA 4 [-]              
1 07529U 74089A   22208.83639466 -.00000051  00000+0 -33434-4 0  9998
2 07529 101.9147 188.5943 0009356  28.9648  29.6639 12.53158773181609
NOAA 5 [-]              
1 09057U 76077A   22208.80861769 -.00000047  00000+0 -16570-4 0  9992
2 09057 102.1010 176.3709 0010373  64.5152 356.0025 12.37772154 78733
TIROS N [-]             
1 11060U 78096A   22209.12021854  .00000058  00000+0  49038-4 0  9996
2 11060  98.6330 261.7806 0011117  32.2433 327.9420 14.18401257477612
NOAA 6 [-]              
1 11416U 79057A   22208.73911747  .00000108  00000+0  54958-4 0  9997
2 11416  98.6633 219.6561 0011151 135.3399 224.8685 14.33777763247299
NOAA 7 [-]              
1 12553U 81059A   22209.10467306  .00000003  00000+0  24242-4 0  9991
2 12553  98.9964 254.0206 0011527   5.7151 354.4153 14.17337998123774
NOAA 8 [-]              
1 13923U 83022A   22208.83264215  .00000039  00000+0  33028-4 0  9999
2 13923  98.6879 199.2216 0016276  91.2659 269.0387 14.28819649 48178
NOAA 9 [-]              
1 15427U 84123A   22209.20681274  .00000016  00000+0  31415-4 0  9996
2 15427  99.0475 182.2359 0015743  52.3377 319.0419 14.16212168942613
NOAA 10 [-]             
1 16969U 86073A   22209.21586100  .00000028  00000+0  28686-4 0  9996
2 16969  98.5693 194.6233 0011922 187.7380 182.6697 14.28210421866914
NOAA 11 [-]             
1 19531U 88089A   22208.92187733  .00000009  00000+0  25692-4 0  9992
2 19531  98.4255 195.7839 0012263  64.7758 295.4686 14.15316067746547
NOAA 12 [-]             
1 21263U 91032A   22208.90808964  .00000012  00000+0  23067-4 0  9991
2 21263  98.5144 207.5974 0012869 217.1818 142.8472 14.26002022622495
NOAA 13 [-]             
1 22739U 93050A   22209.16729849  .00000024  00000+0  35091-4 0  9998
2 22739  98.5064 186.9423 0008597 221.8575 138.1941 14.12852065493040
NOAA 14 [-]             
1 23455U 94089A   22208.88305842  .00000005  00000+0  24099-4 0  9993
2 23455  98.4461 233.3973 0008993 201.5979 158.4817 14.14203067422421
NOAA 15 [B]             
1 25338U 98030A   22209.46280148  .00000125  00000+0  70643-4 0  9990
2 25338  98.6419 238.4578 0010564 171.8039 188.3315 14.26155394259119
NOAA 16 [-]             
1 26536U 00055A   22208.89168540  .00000014  00000+0  30112-4 0  9992
2 26536  98.6340 266.3934 0011397  54.5388 305.6847 14.13336314423068
NOAA 17 [-]             
1 27453U 02032A   22209.22415054  .00000039  00000+0  35209-4 0  9990
2 27453  98.6729 154.0127 0012340 148.4755 211.7166 14.25131147 44672
NOAA 18 [B]             
1 28654U 05018A   22209.42534194  .00000134  00000+0  96175-4 0  9995
2 28654  98.9476 279.8259 0013781 211.8735 148.1604 14.12758352885855
NOAA 19 [+]             
1 33591U 09005A   22209.50213447  .00000102  00000+0  80201-4 0  9993
2 33591  99.1455 244.4962 0014885  74.4370 285.8443 14.12592757694240
SUOMI NPP [+]           
1 37849U 11061A   22209.51675869  .00000016  00000+0  28349-4 0  9998
2 37849  98.7331 147.5017 0001180  89.8679  35.2691 14.19535583557014
NOAA 20 [+]             
1 43013U 17073A   22209.52715001  .00000005  00000+0  23209-4 0  9999
2 43013  98.7170 147.4419 0000903  65.2013 294.9257 14.19563378243053
